[{"OBJECT_NAME":"TIANLIAN 2-05","OBJECT_ID":"2025-084A","EPOCH":"2026-02-01T22:08:23.708832","MEAN_MOTION":1.00273881,"ECCENTRICITY":0.00033245,"INCLINATION":4.7931,"RA_OF_ASC_NODE":281.3064,"ARG_OF_PERICENTER":58.6298,"MEAN_ANOMALY":144.7081,"EPHEMERIS_TYPE":0,"CLASSIFICATION_TYPE":"U","NORAD_CAT_ID":63662,"ELEMENT_SET_NO":999,"REV_AT_EPOCH":302,"BSTAR":0,"MEAN_MOTION_DOT":1.16e-6,"MEAN_MOTION_DDOT":0},{"OBJECT_NAME":"TJS-19","OBJECT_ID":"2025-097A","EPOCH":"2026-02-01T17:34:49.056672","MEAN_MOTION":1.00274117,"ECCENTRICITY":0.0003513,"INCLINATION":3.5189,"RA_OF_ASC_NODE":315.3879,"ARG_OF_PERICENTER":325.0119,"MEAN_ANOMALY":256.4005,"EPHEMERIS_TYPE":0,"CLASSIFICATION_TYPE":"U","NORAD_CAT_ID":63924,"ELEMENT_SET_NO":999,"REV_AT_EPOCH":278,"BSTAR":0,"MEAN_MOTION_DOT":-2.82e-6,"MEAN_MOTION_DDOT":0},{"OBJECT_NAME":"CHINASAT 3B","OBJECT_ID":"2025-106A","EPOCH":"2026-02-01T21:07:44.521824","MEAN_MOTION":1.0027142,"ECCENTRICITY":0.00031245,"INCLINATION":0.0233,"RA_OF_ASC_NODE":185.8561,"ARG_OF_PERICENTER":103.0243,"MEAN_ANOMALY":327.4453,"EPHEMERIS_TYPE":0,"CLASSIFICATION_TYPE":"U","NORAD_CAT_ID":64062,"ELEMENT_SET_NO":999,"REV_AT_EPOCH":270,"BSTAR":0,"MEAN_MOTION_DOT":-5.5e-7,"MEAN_MOTION_DDOT":0},{"OBJECT_NAME":"SXM-10","OBJECT_ID":"2025-122A","EPOCH":"2026-02-01T21:29:34.929024","MEAN_MOTION":1.00275637,"ECCENTRICITY":0.00029072,"INCLINATION":0.0181,"RA_OF_ASC_NODE":52.0358,"ARG_OF_PERICENTER":305.9383,"MEAN_ANOMALY":340.3284,"EPHEMERIS_TYPE":0,"CLASSIFICATION_TYPE":"U","NORAD_CAT_ID":64290,"ELEMENT_SET_NO":999,"REV_AT_EPOCH":232,"BSTAR":0,"MEAN_MOTION_DOT":-2.7e-7,"MEAN_MOTION_DDOT":0},{"OBJECT_NAME":"CHINASAT 9C","OBJECT_ID":"2025-132A","EPOCH":"2026-02-01T22:28:59.236608","MEAN_MOTION":1.00272237,"ECCENTRICITY":0.00032271,"INCLINATION":0.015,"RA_OF_ASC_NODE":102.7968,"ARG_OF_PERICENTER":188.8926,"MEAN_ANOMALY":269.8805,"EPHEMERIS_TYPE":0,"CLASSIFICATION_TYPE":"U","NORAD_CAT_ID":64470,"ELEMENT_SET_NO":999,"REV_AT_EPOCH":279,"BSTAR":0,"MEAN_MOTION_DOT":-2.57e-6,"MEAN_MOTION_DDOT":0},{"OBJECT_NAME":"MTG-S1","OBJECT_ID":"2025-143A","EPOCH":"2026-02-01T22:01:46.842528","MEAN_MOTION":1.00273716,"ECCENTRICITY":0.00030593,"INCLINATION":0.6989,"RA_OF_ASC_NODE":321.2351,"ARG_OF_PERICENTER":325.3897,"MEAN_ANOMALY":172.5862,"EPHEMERIS_TYPE":0,"CLASSIFICATION_TYPE":"U","NORAD_CAT_ID":64723,"ELEMENT_SET_NO":999,"REV_AT_EPOCH":206,"BSTAR":0,"MEAN_MOTION_DOT":-3.9e-7,"MEAN_MOTION_DDOT":0},{"OBJECT_NAME":"DROR 1","OBJECT_ID":"2025-148A","EPOCH":"2026-02-01T22:01:31.866816","MEAN_MOTION":1.00271061,"ECCENTRICITY":0.0003326,"INCLINATION":0.0136,"RA_OF_ASC_NODE":72.6972,"ARG_OF_PERICENTER":254.2032,"MEAN_ANOMALY":131.563,"EPHEMERIS_TYPE":0,"CLASSIFICATION_TYPE":"U","NORAD_CAT_ID":64784,"ELEMENT_SET_NO":999,"REV_AT_EPOCH":194,"BSTAR":0,"MEAN_MOTION_DOT":-4.5e-7,"MEAN_MOTION_DDOT":0},{"OBJECT_NAME":"SHIYAN-29","OBJECT_ID":"2025-196A","EPOCH":"2026-02-01T22:29:44.165472","MEAN_MOTION":1.00267207,"ECCENTRICITY":0.0009465,"INCLINATION":28.6765,"RA_OF_ASC_NODE":20.2363,"ARG_OF_PERICENTER":192.5643,"MEAN_ANOMALY":351.8057,"EPHEMERIS_TYPE":0,"CLASSIFICATION_TYPE":"U","NORAD_CAT_ID":65486,"ELEMENT_SET_NO":999,"REV_AT_EPOCH":152,"BSTAR":0,"MEAN_MOTION_DOT":-2.77e-6,"MEAN_MOTION_DDOT":0},{"OBJECT_NAME":"TJS-20","OBJECT_ID":"2025-238A","EPOCH":"2026-02-01T20:37:47.391456","MEAN_MOTION":1.00267569,"ECCENTRICITY":0.00060834,"INCLINATION":5.7701,"RA_OF_ASC_NODE":300.0731,"ARG_OF_PERICENTER":75.4086,"MEAN_ANOMALY":128.446,"EPHEMERIS_TYPE":0,"CLASSIFICATION_TYPE":"U","NORAD_CAT_ID":66142,"ELEMENT_SET_NO":999,"REV_AT_EPOCH":97,"BSTAR":0,"MEAN_MOTION_DOT":2.0e-7,"MEAN_MOTION_DDOT":0},{"OBJECT_NAME":"CMS-03 (GSAT-7R)","OBJECT_ID":"2025-249B","EPOCH":"2026-02-01T20:46:39.041760","MEAN_MOTION":1.00265287,"ECCENTRICITY":0.0004073,"INCLINATION":0.025,"RA_OF_ASC_NODE":74.7855,"ARG_OF_PERICENTER":348.6052,"MEAN_ANOMALY":113.8037,"EPHEMERIS_TYPE":0,"CLASSIFICATION_TYPE":"U","NORAD_CAT_ID":66311,"ELEMENT_SET_NO":999,"REV_AT_EPOCH":99,"BSTAR":0,"MEAN_MOTION_DOT":0,"MEAN_MOTION_DDOT":0}]
