TIANLIAN 2-05           
1 63662U 25084A   26032.92249663  .00000116  00000+0  00000+0 0  9992
2 63662   4.7931 281.3064 0003324  58.6298 144.7081  1.00273881  3023
TJS-19                  
1 63924U 25097A   26032.73251223 -.00000282  00000+0  00000+0 0  9996
2 63924   3.5189 315.3879 0003513 325.0119 256.4005  1.00274117  2783
CHINASAT 3B             
1 64062U 25106A   26032.88037641 -.00000055  00000+0  00000+0 0  9991
2 64062   0.0233 185.8561 0003124 103.0243 327.4453  1.00271420  2709
SXM-10                  
1 64290U 25122A   26032.89554316 -.00000027  00000+0  00000+0 0  9995
2 64290   0.0181  52.0358 0002907 305.9383 340.3284  1.00275637  2327
CHINASAT 9C             
1 64470U 25132A   26032.93679672 -.00000257  00000+0  00000+0 0  9999
2 64470   0.0150 102.7968 0003227 188.8926 269.8805  1.00272237  2798
MTG-S1                  
1 64723U 25143A   26032.91790327 -.00000039  00000+0  00000+0 0  9999
2 64723   0.6989 321.2351 0003059 325.3897 172.5862  1.00273716  2063
DROR 1                  
1 64784U 25148A   26032.91772994 -.00000045  00000+0  00000+0 0  9998
2 64784   0.0136  72.6972 0003326 254.2032 131.5630  1.00271061  1947
SHIYAN-29               
1 65486U 25196A   26032.93731673 -.00000277  00000+0  00000+0 0  9999
2 65486  28.6765  20.2363 0009465 192.5643 351.8057  1.00267207  1527
TJS-20                  
1 66142U 25238A   26032.85957629  .00000020  00000+0  00000+0 0  9993
2 66142   5.7701 300.0731 0006083  75.4086 128.4460  1.00267569   979
CMS-03 (GSAT-7R)        
1 66311U 25249B   26032.86572965  .00000000  00000+0  00000+0 0  9998
2 66311   0.0250  74.7855 0004073 348.6052 113.8037  1.00265287   996
